start=new Date('2023-04-24T00:00:00.000Z').valueOf();
sats=[{"TLE_LINE1":"1 55946U 23037AJ  23113.86953051  .00003167  00000-0  28085-4 0  9995","SITE":"AFWTR","INCLINATION":"70.0019","MEAN_ANOMALY":"107.5224","PERIAPSIS":"357.204","MEAN_MOTION_DDOT":"0.0000000000000","EPHEMERIS_TYPE":"0","FILE":"3892831","OBJECT_NAME":"STARLINK-5857","PERIOD":"91.724","MEAN_MOTION":"15.69934604","NORAD_CAT_ID":"55946","ECCENTRICITY":"0.00027930","CENTER_NAME":"EARTH","BSTAR":"0.00002808500000","CLASSIFICATION_TYPE":"U","GP_ID":"230662574","ARG_OF_PERICENTER":"252.5667","MEAN_MOTION_DOT":"0.00003167","SEMIMAJOR_AXIS":"6737.221","RA_OF_ASC_NODE":"76.7550","OBJECT_TYPE":"PAYLOAD","APOAPSIS":"360.968","OBJECT_ID":"2023-037AJ","DECAY_DATE":null,"REF_FRAME":"TEME","TLE_LINE2":"2 55946  70.0019  76.7550 0002793 252.5667 107.5224 15.69934604  6017","EPOCH":"2023-04-23T20:52:07.436064","ELEMENT_SET_NO":"999","RCS_SIZE":"LARGE","COUNTRY_CODE":"US","LAUNCH_DATE":"2023-03-17","MEAN_ELEMENT_THEORY":"SGP4","TIME_SYSTEM":"UTC","REV_AT_EPOCH":"601"},{"MEAN_ANOMALY":"96.8972","SITE":"AFWTR","TLE_LINE1":"1 55947U 23037AK  23113.86911100  .00001646  00000-0  15451-4 0  9998","INCLINATION":"70.0019","PERIAPSIS":"357.112","MEAN_MOTION_DDOT":"0.0000000000000","EPHEMERIS_TYPE":"0","FILE":"3892831","OBJECT_NAME":"STARLINK-5851","PERIOD":"91.724","MEAN_MOTION":"15.69929732","ECCENTRICITY":"0.00029510","CENTER_NAME":"EARTH","NORAD_CAT_ID":"55947","BSTAR":"0.00001545100000","GP_ID":"230663826","CLASSIFICATION_TYPE":"U","MEAN_MOTION_DOT":"0.00001646","ARG_OF_PERICENTER":"263.1888","SEMIMAJOR_AXIS":"6737.235","RA_OF_ASC_NODE":"76.7511","APOAPSIS":"361.088","OBJECT_TYPE":"PAYLOAD","DECAY_DATE":null,"OBJECT_ID":"2023-037AK","REF_FRAME":"TEME","ELEMENT_SET_NO":"999","TLE_LINE2":"2 55947  70.0019  76.7511 0002951 263.1888  96.8972 15.69929732  6010","EPOCH":"2023-04-23T20:51:31.190400","RCS_SIZE":"LARGE","COUNTRY_CODE":"US","LAUNCH_DATE":"2023-03-17","MEAN_ELEMENT_THEORY":"SGP4","REV_AT_EPOCH":"601","TIME_SYSTEM":"UTC"},{"MEAN_ELEMENT_THEORY":"SGP4","TIME_SYSTEM":"UTC","REV_AT_EPOCH":"601","EPOCH":"2023-04-23T20:50:45.547008","TLE_LINE2":"2 55948  70.0036  76.7510 0002771 240.8426 119.2493 15.69938590  6019","ELEMENT_SET_NO":"999","REF_FRAME":"TEME","COUNTRY_CODE":"US","LAUNCH_DATE":"2023-03-17","RCS_SIZE":"LARGE","CLASSIFICATION_TYPE":"U","GP_ID":"230664072","MEAN_MOTION_DOT":"0.00007340","ARG_OF_PERICENTER":"240.8426","NORAD_CAT_ID":"55948","ECCENTRICITY":"0.00027710","CENTER_NAME":"EARTH","BSTAR":"0.00006272500000","APOAPSIS":"360.942","OBJECT_TYPE":"PAYLOAD","OBJECT_ID":"2023-037AL","DECAY_DATE":null,"SEMIMAJOR_AXIS":"6737.210","RA_OF_ASC_NODE":"76.7510","MEAN_MOTION_DDOT":"0.0000000000000","EPHEMERIS_TYPE":"0","FILE":"3892831","OBJECT_NAME":"STARLINK-5900","INCLINATION":"70.0036","TLE_LINE1":"1 55948U 23037AL  23113.86858272  .00007340  00000-0  62725-4 0  9992","SITE":"AFWTR","MEAN_ANOMALY":"119.2493","PERIAPSIS":"357.208","PERIOD":"91.723","MEAN_MOTION":"15.69938590"},{"MEAN_ELEMENT_THEORY":"SGP4","TIME_SYSTEM":"UTC","REV_AT_EPOCH":"601","REF_FRAME":"TEME","ELEMENT_SET_NO":"999","TLE_LINE2":"2 55949  70.0024  76.7489 0003003 257.3760 102.7101 15.69936513  6011","EPOCH":"2023-04-23T20:51:03.920832","RCS_SIZE":"LARGE","COUNTRY_CODE":"US","LAUNCH_DATE":"2023-03-17","CENTER_NAME":"EARTH","ECCENTRICITY":"0.00030030","NORAD_CAT_ID":"55949","BSTAR":"0.00006239000000","GP_ID":"230662324","CLASSIFICATION_TYPE":"U","MEAN_MOTION_DOT":"0.00007299","ARG_OF_PERICENTER":"257.3760","SEMIMAJOR_AXIS":"6737.216","RA_OF_ASC_NODE":"76.7489","APOAPSIS":"361.104","OBJECT_TYPE":"PAYLOAD","OBJECT_ID":"2023-037AM","DECAY_DATE":null,"MEAN_ANOMALY":"102.7101","TLE_LINE1":"1 55949U 23037AM  23113.86879538  .00007299  00000-0  62390-4 0  9992","INCLINATION":"70.0024","SITE":"AFWTR","PERIAPSIS":"357.057","MEAN_MOTION_DDOT":"0.0000000000000","EPHEMERIS_TYPE":"0","FILE":"3892831","OBJECT_NAME":"STARLINK-5899","PERIOD":"91.723","MEAN_MOTION":"15.69936513"},{"MEAN_MOTION_DDOT":"0.0000000000000","EPHEMERIS_TYPE":"0","FILE":"3892831","OBJECT_NAME":"STARLINK-5911","SITE":"AFWTR","TLE_LINE1":"1 55950U 23037AN  23113.86837415  .00003467  00000-0  30584-4 0  9995","INCLINATION":"70.0010","MEAN_ANOMALY":"98.5786","PERIAPSIS":"356.945","PERIOD":"91.724","MEAN_MOTION":"15.69931318","CLASSIFICATION_TYPE":"U","GP_ID":"230663075","ARG_OF_PERICENTER":"261.5048","MEAN_MOTION_DOT":"0.00003467","NORAD_CAT_ID":"55950","ECCENTRICITY":"0.00031920","CENTER_NAME":"EARTH","BSTAR":"0.00003058400000","OBJECT_TYPE":"PAYLOAD","APOAPSIS":"361.246","DECAY_DATE":null,"OBJECT_ID":"2023-037AN","SEMIMAJOR_AXIS":"6737.230","RA_OF_ASC_NODE":"76.7481","EPOCH":"2023-04-23T20:50:27.526560","TLE_LINE2":"2 55950  70.0010  76.7481 0003192 261.5048  98.5786 15.69931318  6014","ELEMENT_SET_NO":"999","REF_FRAME":"TEME","COUNTRY_CODE":"US","LAUNCH_DATE":"2023-03-17","RCS_SIZE":"LARGE","MEAN_ELEMENT_THEORY":"SGP4","TIME_SYSTEM":"UTC","REV_AT_EPOCH":"601"},{"SEMIMAJOR_AXIS":"6737.205","RA_OF_ASC_NODE":"76.7531","APOAPSIS":"360.992","OBJECT_TYPE":"PAYLOAD","DECAY_DATE":null,"OBJECT_ID":"2023-037AP","ECCENTRICITY":"0.00028540","CENTER_NAME":"EARTH","NORAD_CAT_ID":"55951","BSTAR":"0.00004990600000","GP_ID":"230663326","CLASSIFICATION_TYPE":"U","MEAN_MOTION_DOT":"0.00005796","ARG_OF_PERICENTER":"251.8784","PERIOD":"91.723","MEAN_MOTION":"15.69940344","MEAN_ANOMALY":"108.2100","TLE_LINE1":"1 55951U 23037AP  23113.86900246  .00005796  00000-0  49906-4 0  9994","SITE":"AFWTR","INCLINATION":"70.0026","PERIAPSIS":"357.147","MEAN_MOTION_DDOT":"0.0000000000000","FILE":"3892831","OBJECT_NAME":"STARLINK-5908","EPHEMERIS_TYPE":"0","REV_AT_EPOCH":"601","TIME_SYSTEM":"UTC","MEAN_ELEMENT_THEORY":"SGP4","RCS_SIZE":"LARGE","LAUNCH_DATE":"2023-03-17","COUNTRY_CODE":"US","REF_FRAME":"TEME","ELEMENT_SET_NO":"999","TLE_LINE2":"2 55951  70.0026  76.7531 0002854 251.8784 108.2100 15.69940344  6019","EPOCH":"2023-04-23T20:51:21.812544"},{"LAUNCH_DATE":"2023-03-17","COUNTRY_CODE":"US","RCS_SIZE":"LARGE","EPOCH":"2023-04-23T20:50:54.727008","TLE_LINE2":"2 55952  70.0036  76.7495 0002704 245.8511 114.2402 15.69931857  6016","ELEMENT_SET_NO":"999","REF_FRAME":"TEME","TIME_SYSTEM":"UTC","REV_AT_EPOCH":"601","MEAN_ELEMENT_THEORY":"SGP4","PERIOD":"91.724","MEAN_MOTION":"15.69931857","MEAN_MOTION_DDOT":"0.0000000000000","OBJECT_NAME":"STARLINK-5893","FILE":"3892831","EPHEMERIS_TYPE":"0","TLE_LINE1":"1 55952U 23037AQ  23113.86868897  .00003358  00000-0  29677-4 0  9995","INCLINATION":"70.0036","SITE":"AFWTR","MEAN_ANOMALY":"114.2402","PERIAPSIS":"357.272","OBJECT_TYPE":"PAYLOAD","APOAPSIS":"360.916","DECAY_DATE":null,"OBJECT_ID":"2023-037AQ","SEMIMAJOR_AXIS":"6737.229","RA_OF_ASC_NODE":"76.7495","CLASSIFICATION_TYPE":"U","GP_ID":"230663572","ARG_OF_PERICENTER":"245.8511","MEAN_MOTION_DOT":"0.00003358","NORAD_CAT_ID":"55952","CENTER_NAME":"EARTH","ECCENTRICITY":"0.00027040","BSTAR":"0.00002967700000"},{"FILE":"3892831","OBJECT_NAME":"STARLINK-5889","EPHEMERIS_TYPE":"0","MEAN_MOTION_DDOT":"0.0000000000000","PERIAPSIS":"356.877","MEAN_ANOMALY":"93.3176","INCLINATION":"70.0019","TLE_LINE1":"1 55953U 23037AR  23113.86890063  .00008882  00000-0  75518-4 0  9998","SITE":"AFWTR","MEAN_MOTION":"15.69936612","PERIOD":"91.723","MEAN_MOTION_DOT":"0.00008882","ARG_OF_PERICENTER":"266.7645","GP_ID":"230662825","CLASSIFICATION_TYPE":"U","BSTAR":"0.00007551800000","ECCENTRICITY":"0.00032710","CENTER_NAME":"EARTH","NORAD_CAT_ID":"55953","OBJECT_ID":"2023-037AR","DECAY_DATE":null,"APOAPSIS":"361.284","OBJECT_TYPE":"PAYLOAD","RA_OF_ASC_NODE":"76.7509","SEMIMAJOR_AXIS":"6737.215","ELEMENT_SET_NO":"999","EPOCH":"2023-04-23T20:51:13.014432","TLE_LINE2":"2 55953  70.0019  76.7509 0003271 266.7645  93.3176 15.69936612  6013","REF_FRAME":"TEME","COUNTRY_CODE":"US","LAUNCH_DATE":"2023-03-17","RCS_SIZE":"LARGE","MEAN_ELEMENT_THEORY":"SGP4","REV_AT_EPOCH":"601","TIME_SYSTEM":"UTC"},{"RCS_SIZE":"LARGE","COUNTRY_CODE":"US","LAUNCH_DATE":"2023-03-17","REF_FRAME":"TEME","ELEMENT_SET_NO":"999","TLE_LINE2":"2 55954  70.0025  76.7465 0003161 253.9119 106.1729 15.69933722  6010","EPOCH":"2023-04-23T20:49:23.772864","REV_AT_EPOCH":"601","TIME_SYSTEM":"UTC","MEAN_ELEMENT_THEORY":"SGP4","MEAN_MOTION":"15.69933722","PERIOD":"91.724","PERIAPSIS":"356.959","MEAN_ANOMALY":"106.1729","SITE":"AFWTR","TLE_LINE1":"1 55954U 23037AS  23113.86763626  .00009775  00000-0  82934-4 0  9995","INCLINATION":"70.0025","FILE":"3892831","OBJECT_NAME":"STARLINK-5892","EPHEMERIS_TYPE":"0","MEAN_MOTION_DDOT":"0.0000000000000","RA_OF_ASC_NODE":"76.7465","SEMIMAJOR_AXIS":"6737.224","OBJECT_ID":"2023-037AS","DECAY_DATE":null,"APOAPSIS":"361.218","OBJECT_TYPE":"PAYLOAD","BSTAR":"0.00008293400000","CENTER_NAME":"EARTH","ECCENTRICITY":"0.00031610","NORAD_CAT_ID":"55954","ARG_OF_PERICENTER":"253.9119","MEAN_MOTION_DOT":"0.00009775","GP_ID":"230662575","CLASSIFICATION_TYPE":"U"},{"TIME_SYSTEM":"UTC","REV_AT_EPOCH":"601","MEAN_ELEMENT_THEORY":"SGP4","RCS_SIZE":"LARGE","COUNTRY_CODE":"US","LAUNCH_DATE":"2023-03-17","REF_FRAME":"TEME","ELEMENT_SET_NO":"999","EPOCH":"2023-04-23T20:50:09.360096","TLE_LINE2":"2 55955  70.0024  76.7468 0002926 252.0530 108.0347 15.69939442  6010","SEMIMAJOR_AXIS":"6737.207","RA_OF_ASC_NODE":"76.7468","OBJECT_TYPE":"PAYLOAD","APOAPSIS":"361.044","OBJECT_ID":"2023-037AT","DECAY_DATE":null,"CENTER_NAME":"EARTH","ECCENTRICITY":"0.00029260","NORAD_CAT_ID":"55955","BSTAR":"0.00010731000000","GP_ID":"230663827","CLASSIFICATION_TYPE":"U","MEAN_MOTION_DOT":"0.00012717","ARG_OF_PERICENTER":"252.0530","PERIOD":"91.723","MEAN_MOTION":"15.69939442","MEAN_ANOMALY":"108.0347","INCLINATION":"70.0024","TLE_LINE1":"1 55955U 23037AT  23113.86816389  .00012717  00000-0  10731-3 0  9996","SITE":"AFWTR","PERIAPSIS":"357.101","MEAN_MOTION_DDOT":"0.0000000000000","EPHEMERIS_TYPE":"0","FILE":"3892831","OBJECT_NAME":"STARLINK-5878"}];
